[{"OBJECT_NAME":"STARLINK-30846","OBJECT_ID":"2023-170E","EPOCH":"2026-03-09T22:00:01.999584","MEAN_MOTION":15.26732422,"ECCENTRICITY":0.00014288,"INCLINATION":43.0007,"RA_OF_ASC_NODE":193.3919,"ARG_OF_PERICENTER":269.3036,"MEAN_ANOMALY":280.8259,"EPHEMERIS_TYPE":0,"CLASSIFICATION_TYPE":"U","NORAD_CAT_ID":58210,"ELEMENT_SET_NO":999,"REV_AT_EPOCH":572,"BSTAR":0.00080478608,"MEAN_MOTION_DOT":0.00021385,"MEAN_MOTION_DDOT":0},{"OBJECT_NAME":"UHETSAT","OBJECT_ID":"2023-185E","EPOCH":"2026-03-09T22:39:26.455680","MEAN_MOTION":15.29797662,"ECCENTRICITY":0.00118435,"INCLINATION":97.3584,"RA_OF_ASC_NODE":137.3576,"ARG_OF_PERICENTER":307.7346,"MEAN_ANOMALY":52.2821,"EPHEMERIS_TYPE":0,"CLASSIFICATION_TYPE":"U","NORAD_CAT_ID":58466,"ELEMENT_SET_NO":999,"REV_AT_EPOCH":12611,"BSTAR":0.00030513019,"MEAN_MOTION_DOT":8.749e-5,"MEAN_MOTION_DDOT":0}]
